{
  "norad_id": 52628,
  "name": "STARLINK-4001",
  "history": [
    {
      "epoch": "2026-05-05T17:31:43.523040Z",
      "apogee_km": 540.6580404733077,
      "perigee_km": 538.725199156931,
      "latitude_deg": -2.9225886532759705e-05,
      "longitude_deg": -98.47752214330775,
      "height_km": 540.6903344824193,
      "semi_major_axis_km": 6917.828619815119,
      "eccentricity": 0.0001397,
      "inclination_deg": 53.2191,
      "raan_deg": 28.055,
      "arg_perigee_deg": 96.1097,
      "mean_anomaly_deg": 264.0054,
      "mean_motion_rev_day": 15.08856937
    },
    {
      "epoch": "2026-05-06T20:33:16.585344Z",
      "apogee_km": 540.7141070162843,
      "perigee_km": 538.699630881646,
      "latitude_deg": 4.6141335825231255e-05,
      "longitude_deg": -150.03284226442568,
      "height_km": 540.884671766463,
      "semi_major_axis_km": 6917.843868948965,
      "eccentricity": 0.0001456,
      "inclination_deg": 53.2203,
      "raan_deg": 22.9973,
      "arg_perigee_deg": 106.2496,
      "mean_anomaly_deg": 253.8657,
      "mean_motion_rev_day": 15.08851948
    },
    {
      "epoch": "2026-05-07T20:24:04.397760Z",
      "apogee_km": 540.7362739709752,
      "perigee_km": 538.8200114764404,
      "latitude_deg": 4.4343435229606484e-05,
      "longitude_deg": -153.1722111459675,
      "height_km": 540.7439267611547,
      "semi_major_axis_km": 6917.9151427237075,
      "eccentricity": 0.0001385,
      "inclination_deg": 53.2189,
      "raan_deg": 18.5365,
      "arg_perigee_deg": 94.1873,
      "mean_anomaly_deg": 265.9278,
      "mean_motion_rev_day": 15.0882863
    },
    {
      "epoch": "2026-05-08T20:14:51.676224Z",
      "apogee_km": 540.6834986362692,
      "perigee_km": 538.8308865714889,
      "latitude_deg": 4.304851616996514e-05,
      "longitude_deg": -156.3081481744199,
      "height_km": 540.6171313199706,
      "semi_major_axis_km": 6917.894192603879,
      "eccentricity": 0.0001339,
      "inclination_deg": 53.2192,
      "raan_deg": 14.0769,
      "arg_perigee_deg": 87.7738,
      "mean_anomaly_deg": 272.3408,
      "mean_motion_rev_day": 15.08835484
    },
    {
      "epoch": "2026-05-09T20:05:38.984064Z",
      "apogee_km": 540.7182678207746,
      "perigee_km": 538.8587294467416,
      "latitude_deg": -1.6055248040468474e-06,
      "longitude_deg": -159.44313936635433,
      "height_km": 540.7252529652598,
      "semi_major_axis_km": 6917.925498633757,
      "eccentricity": 0.0001344,
      "inclination_deg": 53.2191,
      "raan_deg": 9.6184,
      "arg_perigee_deg": 92.5181,
      "mean_anomaly_deg": 267.5965,
      "mean_motion_rev_day": 15.08825242
    },
    {
      "epoch": "2026-05-10T19:56:26.145888Z",
      "apogee_km": 540.7308411700533,
      "perigee_km": 538.7869124286717,
      "latitude_deg": 2.0305579905022673e-05,
      "longitude_deg": -162.57857007543507,
      "height_km": 540.7841109116101,
      "semi_major_axis_km": 6917.895876799362,
      "eccentricity": 0.0001405,
      "inclination_deg": 53.2188,
      "raan_deg": 5.1588,
      "arg_perigee_deg": 97.6525,
      "mean_anomaly_deg": 262.4627,
      "mean_motion_rev_day": 15.08834933
    },
    {
      "epoch": "2026-05-11T21:22:36.200928Z",
      "apogee_km": 540.657116531569,
      "perigee_km": 538.8280291725068,
      "latitude_deg": 1.1534297452276347e-05,
      "longitude_deg": 170.0773025377468,
      "height_km": 540.7325995814952,
      "semi_major_axis_km": 6917.879572852038,
      "eccentricity": 0.0001322,
      "inclination_deg": 53.2186,
      "raan_deg": 0.4012,
      "arg_perigee_deg": 95.9079,
      "mean_anomaly_deg": 264.2064,
      "mean_motion_rev_day": 15.08840267
    },
    {
      "epoch": "2026-05-12T19:37:59.469024Z",
      "apogee_km": 540.6619327137214,
      "perigee_km": 538.7000395328578,
      "latitude_deg": -5.20583371205803e-05,
      "longitude_deg": -168.84653520572945,
      "height_km": 540.5661581972226,
      "semi_major_axis_km": 6917.817986123289,
      "eccentricity": 0.0001418,
      "inclination_deg": 53.2195,
      "raan_deg": 356.2384,
      "arg_perigee_deg": 89.3754,
      "mean_anomaly_deg": 270.74,
      "mean_motion_rev_day": 15.08860416
    }
  ]
}